#aV2012 11 17  0  0  0.00000000     288 DD+AD WGS84 FIT  NGA
## 1714 518400.00000000   300.00000000 56248 0.0000000000000
+   31     1  2  3  4  5  6  7  8  9 10 11 12 13 14 15 16 17
+         18 19 20 21 22 23 24 25 26 28 29 30 31 32  0  0  0
+          0  0  0  0  0  0  0  0  0  0  0  0  0  0  0  0  0
+          0  0  0  0  0  0  0  0  0  0  0  0  0  0  0  0  0
+          0  0  0  0  0  0  0  0  0  0  0  0  0  0  0  0  0
++         2  2  2  2  2  2  2  2  2  2  2  2  2  2  2  2  2
++         2  2  2  2  2  2  2  2  2  2  2  2  2  2  2  0  0
++         0  0  0  0  0  0  0  0  0  0  0  0  0  0  0  0  0
++         0  0  0  0  0  0  0  0  0  0  0  0  0  0  0  0  0
++         0  0  0  0  0  0  0  0  0  0  0  0  0  0  0  0  0
%c cc cc ccc ccc cccc cccc cccc cccc ccccc ccccc ccccc ccccc
%c cc cc ccc ccc cccc cccc cccc cccc ccccc ccccc ccccc ccccc
%f  0.0000000  0.000000000  0.00000000000  0.000000000000000
%f  0.0000000  0.000000000  0.00000000000  0.000000000000000
%i    0    0    0    0      0      0      0      0         0
%i    0    0    0    0      0      0      0      0         0
/*      NGA, ST. LOUIS,MO.                                  
/*   EPHEMERIS COMPUTED FROM  1 DAYS OF DATA
/*   EPOCHA SMOOTHER  
/* CCCCCCCCCCCCCCCCCCCCCCCCCCCCCCCCCCCCCCCCCCCCCCCCCCCCCCCCC
*  2012 11 17 22 30  0.00000000                                                 
P  1 -12867.870313  21918.425281  -7629.350702    282.977820                    
V  1  -8544.983572   5288.322844  29750.413202      0.018541                    
P  2  20920.052213 -11345.442567 -11091.465325    409.208242                    
V  2  -7072.942985  13168.830995 -26949.154823      0.010730                    
P  3 -14150.566233   6527.360244  21012.800731    129.836860                    
V  3 -12039.201482 -25238.629986    -24.967893      0.052624                    
P  4  17390.109136   2990.592840 -20206.043165     49.206670                    
V  4 -16153.324132  19187.606719 -10917.357354      0.111182                    
P  5  23052.625878  -4134.753450  12638.310961   -367.231834                    
V  5  15141.547067   5889.594668 -25494.393089     -0.025202                    
P  6 -16492.394763   -224.146622  20967.940953    453.499083                    
V  6  -8821.742928 -24915.167354  -6913.249961     -0.120674                    
P  7    101.575027  18507.985721  18978.083386    146.717025                    
V  7 -17579.891715  16502.895546 -16309.854323      0.044961                    
P  8  10941.933169   9566.503495  22349.504514      2.915037                    
V  8 -21130.085552  18399.382835   1908.177331      0.002960                    
P  9  15863.139281 -21093.969791  -3672.580685    200.449462                    
V  9   4124.813559  -1621.318447  31797.681106      0.026293                    
P 10  24827.057453   9225.576636  -4266.933607    -58.821162                    
V 10  -5567.298532   1599.532038 -30522.276619     -0.013739                    
P 11 -12279.815866  23340.228039    795.783505   -324.242928                    
V 11  -4119.349721  -3729.099322  30215.741119     -0.038688                    
P 12   7620.587182 -13089.419111 -21815.860796    102.164414                    
V 12  26666.793276   7198.695555   5184.296807      0.020199                    
P 13   4445.255304  26085.378049  -1530.799484    166.519695                    
V 13  -2492.837319  -1297.237380 -32253.964932     -0.026955                    
P 14 -13866.770233 -17920.675621 -13776.385025    216.900810                    
V 14  -2416.277218 -17663.246590  24911.700157      0.006480                    
P 15   7570.390960 -17995.215183  17892.104667    -99.904115                    
V 15   9283.329480  21009.279166  17429.738713     -0.009469                    
P 16 -23175.406978   2643.371012  12992.705311   -249.691493                    
V 16 -15376.002030  -5744.983894 -25940.344060     -0.005336                    
P 17  14768.596108  16992.414104 -14097.865760     77.670880                    
V 17   2862.409565  17998.800917  24126.115431     -0.035388                    
P 18 -13472.601284 -16049.170684  16900.394888    225.111664                    
V 18  20643.133290   2631.029784  19041.595169      0.018288                    
P 19 -10291.553449  15166.537404  18998.637840   -323.078463                    
V 19  -6719.621956 -23532.591880  15480.009880     -0.034249                    
P 20  -5476.204843  15167.184412 -21265.605182     73.672219                    
V 20 -26284.104643  -4988.841722   3311.137016      0.011565                    
P 21  -4925.006681 -16889.564618  20274.551715   -262.854853                    
V 21  17966.649348 -17255.454315 -10837.009892     -0.023743                    
P 22 -23601.104231 -10547.646958   6569.192365    151.478057                    
V 22   8716.029349  -1639.994188  29388.216615      0.008690                    
P 23  -2709.145097  22787.894087 -12979.068185    142.959805                    
V 23  -7293.962671 -15280.034429 -25566.157389     -0.038394                    
P 24  15430.406053 -21233.470464  -4038.674455      3.811622                    
V 24   5543.551612  -1903.202426  31171.992764     -0.005460                    
P 25  -6301.240012 -15711.691192 -20520.681221     51.662319                    
V 25  25520.326822   4636.623341 -11340.856373      0.019292                    
P 26  13572.468716  -5391.687386  21541.529021   -206.430875                    
V 26   6506.258325  28092.059745   3190.224199      0.135516                    
P 28  21113.163699  13063.735043  10293.398725    205.626225                    
V 28 -12129.936670  -1712.439963  28445.744704      0.035387                    
P 29  -4341.290987 -25987.397469  -3472.730237    378.124190                    
V 29   3691.232204   3646.517835 -31405.540040      0.041081                    
P 30 -26398.276175  -2249.825831   1326.887869   -317.032306                    
V 30  -1761.285061  -3042.804741 -31743.258256      0.151184                    
P 31 -18600.850468   1149.333076 -18834.498529    287.341435                    
V 31  16002.356815 -18153.454105 -16493.865835      0.021753                    
P 32 -15669.616036   9251.642737 -18993.408458   -508.845487                    
V 32 -22996.633344  -9160.961014  14879.666778     -0.035356                    
EOF
